NORAD_CAT_ID,OBJECT_NAME,OBJECT_TYPE,EPOCH,MEAN_MOTION,ECCENTRICITY,INCLINATION,RA_OF_ASC_NODE,ARG_OF_PERICENTER,MEAN_ANOMALY,BSTAR,MEAN_MOTION_DOT,MEAN_MOTION_DDOT,TLE_LINE0,TLE_LINE1,TLE_LINE2,SEMIMAJOR_AXIS,PERIOD,APOGEE,PERIGEE,DECAYED
51123.0,STARLINK-3392,PAYLOAD,2023-11-05 21:20:36,15.08886682,0.0001335,53.2158,166.4681,95.0449,265.0695,0.0017692,0.00028017,0.0,0 STARLINK-3392,1 51123U 22005V   23309.88931278  .00028017  00000-0  17692-2 0  9999,2 51123  53.2158 166.4681 0001335  95.0449 265.0695 15.08886682 99837,6917.738,95.435,540.526,538.679,0.0
51123.0,STARLINK-3392,PAYLOAD,2023-11-06 00:31:22,15.08896904,0.0001327,53.2159,165.8729,95.3383,264.7761,0.0019441,0.00030836,0.0,0 STARLINK-3392,1 51123U 22005V   23310.02178795  .00030836  00000-0  19441-2 0  9990,2 51123  53.2159 165.8729 0001327  95.3383 264.7761 15.08896904100937,6917.706,95.434,540.489,538.653,0.0
51123.0,STARLINK-3392,PAYLOAD,2023-11-06 19:35:59,15.08864656,0.0001116,53.2159,162.3048,117.2045,242.9061,0.0012779,0.00020122,0.0,0 STARLINK-3392,1 51123U 22005V   23310.81666332  .00020122  00000-0  12779-2 0  9990,2 51123  53.2159 162.3048 0001116 117.2045 242.9061 15.08864656101052,6917.805,95.436,540.442,538.898,0.0
51123.0,STARLINK-3392,PAYLOAD,2023-11-06 21:11:23,15.08855108,0.000114,53.216,162.0073,57.6919,302.4183,0.00090859,0.00014208,0.0,0 STARLINK-3392,1 51123U 22005V   23310.88290624  .00014208  00000-0  90859-3 0  9998,2 51123  53.2160 162.0073 0001140  57.6919 302.4183 15.08855108 99980,6917.834,95.437,540.488,538.911,0.0
51123.0,STARLINK-3392,PAYLOAD,2023-11-07 06:43:42,15.08827329,0.0001174,53.2164,160.2241,70.346,289.7659,0.00053906,8.299e-05,0.0,0 STARLINK-3392,1 51123U 22005V   23311.28035227  .00008299  00000-0  53906-3 0  9994,2 51123  53.2164 160.2241 0001174  70.3460 289.7659 15.08827329101120,6917.919,95.438,540.596,538.972,0.0
51123.0,STARLINK-3392,PAYLOAD,2023-11-07 13:05:15,15.08802821,0.0001228,53.2162,159.0349,87.9418,272.1715,-0.00015071,-2.683e-05,0.0,0 STARLINK-3392,1 51123U 22005V   23311.54532168 -.00002683  00000-0 -15071-3 0  9993,2 51123  53.2162 159.0349 0001228  87.9418 272.1715 15.08802821100083,6917.994,95.44,540.709,539.01,0.0
51123.0,STARLINK-3392,PAYLOAD,2023-11-07 19:26:48,15.08800077,0.0001265,53.2155,157.847,91.2617,268.852,0.00063216,9.776e-05,0.0,0 STARLINK-3392,1 51123U 22005V   23311.81028828  .00009776  00000-0  63216-3 0  9998,2 51123  53.2155 157.8470 0001265  91.2617 268.8520 15.08800077101208,6918.002,95.44,540.743,538.992,0.0
51123.0,STARLINK-3392,PAYLOAD,2023-11-08 12:56:05,15.08758302,0.0001701,53.2153,154.5752,90.0472,270.0715,-0.0020115,-0.00032088,0.0,0 STARLINK-3392,1 51123U 22005V   23312.53894698 -.00032088  00000-0 -20115-2 0  9998,2 51123  53.2153 154.5752 0001701  90.0472 270.0715 15.08758302100230,6918.13,95.443,541.172,538.818,0.0
51123.0,STARLINK-3392,PAYLOAD,2023-11-08 20:53:00,15.08826457,0.0001337,53.2152,153.0891,88.9821,271.1324,0.00085029,0.00013265,0.0,0 STARLINK-3392,1 51123U 22005V   23312.87014564  .00013265  00000-0  85029-3 0  9991,2 51123  53.2152 153.0891 0001337  88.9821 271.1324 15.08826457100286,6917.922,95.438,540.712,538.862,0.0
51123.0,STARLINK-3392,PAYLOAD,2023-11-09 19:08:23,15.08862137,0.0001209,53.2145,148.9256,88.6306,271.4824,0.0010174,0.00015951,0.0,0 STARLINK-3392,1 51123U 22005V   23313.79749957  .00015951  00000-0  10174-2 0  9996,2 51123  53.2145 148.9256 0001209  88.6306 271.4824 15.08862137101508,6917.813,95.436,540.514,538.841,0.0
51123.0,STARLINK-3392,PAYLOAD,2023-11-09 20:43:46,15.08865326,0.0001208,53.2144,148.6283,89.5497,270.5634,0.0010587,0.00016613,0.0,0 STARLINK-3392,1 51123U 22005V   23313.86373825  .00016613  00000-0  10587-2 0  9995,2 51123  53.2144 148.6283 0001208  89.5497 270.5634 15.08865326100437,6917.803,95.436,540.504,538.832,0.0
51123.0,STARLINK-3392,PAYLOAD,2023-11-10 18:59:10,15.08863363,0.0001335,53.214,144.4649,84.9061,275.2084,0.00057403,8.865e-05,0.0,0 STARLINK-3392,1 51123U 22005V   23314.79109061  .00008865  00000-0  57403-3 0  9996,2 51123  53.2140 144.4649 0001335  84.9061 275.2084 15.08863363101655,6917.809,95.436,540.598,538.75,0.0
51123.0,STARLINK-3392,PAYLOAD,2023-11-10 20:34:33,15.08860039,0.0001327,53.2139,144.1676,85.7355,274.3788,0.00038747,5.887e-05,0.0,0 STARLINK-3392,1 51123U 22005V   23314.85732998  .00005887  00000-0  38747-3 0  9995,2 51123  53.2139 144.1676 0001327  85.7355 274.3788 15.08860039100585,6917.819,95.436,540.602,538.766,0.0
51123.0,STARLINK-3392,PAYLOAD,2023-11-11 18:49:57,15.08846654,0.0001435,53.2145,140.005,84.0943,276.0213,2.9352e-05,1.79e-06,0.0,0 STARLINK-3392,1 51123U 22005V   23315.78468974  .00000179  00000-0  29352-4 0  9990,2 51123  53.2145 140.0050 0001435  84.0943 276.0213 15.08846654101803,6917.86,95.437,540.718,538.732,0.0
51123.0,STARLINK-3392,PAYLOAD,2023-11-11 22:00:43,15.08848182,0.0001445,53.2145,139.409,87.3703,272.7455,-3.5971e-05,-8.61e-06,0.0,0 STARLINK-3392,1 51123U 22005V   23315.91716806 -.00000861  00000-0 -35971-4 0  9999,2 51123  53.2145 139.4090 0001445  87.3703 272.7455 15.08848182100741,6917.855,95.437,540.72,538.721,0.0
51123.0,STARLINK-3392,PAYLOAD,2023-11-12 12:19:11,15.08841623,0.000148,53.2151,136.7312,93.7878,266.3283,4.1011e-05,3.65e-06,0.0,0 STARLINK-3392,1 51123U 22005V   23316.51333103  .00000365  00000-0  41011-4 0  9990,2 51123  53.2151 136.7312 0001480  93.7878 266.3283 15.08841623100839,6917.875,95.437,540.764,538.717,0.0
51123.0,STARLINK-3392,PAYLOAD,2023-11-12 21:51:30,15.08843728,0.0001452,53.2165,134.9474,94.2082,265.9076,3.4154e-05,2.56e-06,0.0,0 STARLINK-3392,1 51123U 22005V   23316.91076928  .00000256  00000-0  34154-4 0  9992,2 51123  53.2165 134.9474 0001452  94.2082 265.9076 15.08843728100894,6917.869,95.437,540.738,538.73,0.0
51123.0,STARLINK-3392,PAYLOAD,2023-11-13 21:42:16,15.08846908,0.0001425,53.2165,130.4865,96.7859,263.3295,0.00011198,1.495e-05,0.0,0 STARLINK-3392,1 51123U 22005V   23317.90436243  .00001495  00000-0  11198-3 0  9990,2 51123  53.2165 130.4865 0001425  96.7859 263.3295 15.08846908101044,6917.859,95.437,540.71,538.738,0.0
51123.0,STARLINK-3392,PAYLOAD,2023-11-14 12:00:45,15.0883499,0.000141,53.2169,127.8104,101.055,259.0601,1.4308e-05,-6e-07,0.0,0 STARLINK-3392,1 51123U 22005V   23318.50053229 -.00000060  00000-0  14308-4 0  9991,2 51123  53.2169 127.8104 0001410 101.0550 259.0601 15.08834990102217,6917.896,95.438,540.736,538.785,0.0
51123.0,STARLINK-3392,PAYLOAD,2023-11-14 21:33:04,15.08836042,0.0001388,53.2168,126.027,94.9541,265.1609,6.0049e-06,-1.92e-06,0.0,0 STARLINK-3392,1 51123U 22005V   23318.89797268 -.00000192  00000-0  60049-5 0  9991,2 51123  53.2168 126.0270 0001388  94.9541 265.1609 15.08836042101197,6917.892,95.438,540.718,538.797,0.0
51123.0,STARLINK-3392,PAYLOAD,2023-11-15 10:16:09,15.08840024,0.0001428,53.215,123.6479,94.7667,265.3488,-1.3763e-05,-5.07e-06,0.0,0 STARLINK-3392,1 51123U 22005V   23319.42789106 -.00000507  00000-0 -13763-4 0  9994,2 51123  53.2150 123.6479 0001428  94.7667 265.3488 15.08840024101275,6917.88,95.438,540.733,538.757,0.0
51123.0,STARLINK-3392,PAYLOAD,2023-11-15 18:13:05,15.0883295,0.0001359,53.215,122.161,94.5126,265.6021,8.3027e-05,1.033e-05,0.0,0 STARLINK-3392,1 51123U 22005V   23319.75909226  .00001033  00000-0  83027-4 0  9990,2 51123  53.2150 122.1610 0001359  94.5126 265.6021 15.08832950102408,6917.902,95.438,540.707,538.827,0.0
51123.0,STARLINK-3392,PAYLOAD,2023-11-16 21:14:38,15.0883742,0.0001328,53.2148,117.1054,92.799,267.3154,7.7481e-05,9.45e-06,0.0,0 STARLINK-3392,1 51123U 22005V   23320.88517301  .00000945  00000-0  77481-4 0  9993,2 51123  53.2148 117.1054 0001328  92.7990 267.3154 15.08837420101497,6917.888,95.438,540.672,538.835,0.0
51123.0,STARLINK-3392,PAYLOAD,2023-11-17 03:36:11,15.08837479,0.0001343,53.2161,115.9156,85.8112,274.3034,7.4088e-05,8.91e-06,0.0,0 STARLINK-3392,1 51123U 22005V   23321.15013381  .00000891  00000-0  74088-4 0  9993,2 51123  53.2161 115.9156 0001343  85.8112 274.3034 15.08837479102611,6917.888,95.438,540.682,538.824,0.0
51123.0,STARLINK-3392,PAYLOAD,2023-11-18 09:48:31,15.08839904,0.0001512,53.2182,110.2666,90.536,269.5805,3.7226e-05,3.05e-06,0.0,0 STARLINK-3392,1 51123U 22005V   23322.40869487  .00000305  00000-0  37226-4 0  9991,2 51123  53.2182 110.2666 0001512  90.5360 269.5805 15.08839904102802,6917.881,95.438,540.792,538.7,0.0
51123.0,STARLINK-3392,PAYLOAD,2023-11-18 16:10:03,15.08839891,0.0001392,53.2149,109.0775,83.7741,276.341,6.6604e-05,7.72e-06,0.0,0 STARLINK-3392,1 51123U 22005V   23322.67365416  .00000772  00000-0  66604-4 0  9993,2 51123  53.2149 109.0775 0001392  83.7741 276.3410 15.08839891101762,6917.881,95.438,540.709,538.783,0.0
51123.0,STARLINK-3392,PAYLOAD,2023-11-19 14:25:27,15.08842101,0.0001398,53.2164,104.9149,83.7276,276.3875,7.4314e-05,8.95e-06,0.0,0 STARLINK-3392,1 51123U 22005V   23323.60101227  .00000895  00000-0  74314-4 0  9998,2 51123  53.2164 104.9149 0001398  83.7276 276.3875 15.08842101101906,6917.874,95.437,540.706,538.772,0.0
51123.0,STARLINK-3392,PAYLOAD,2023-11-19 16:00:50,15.08842679,0.0001243,53.2155,104.6168,84.8719,275.2415,9.1396e-05,1.167e-05,0.0,0 STARLINK-3392,1 51123U 22005V   23323.66725098  .00001167  00000-0  91396-4 0  9994,2 51123  53.2155 104.6168 0001243  84.8719 275.2415 15.08842679102995,6917.872,95.437,540.597,538.877,0.0
51123.0,STARLINK-3392,PAYLOAD,2023-11-20 09:30:05,15.08839901,0.0001491,53.217,101.346,94.0753,266.041,2.3964e-05,9.3e-07,0.0,0 STARLINK-3392,1 51123U 22005V   23324.39589437  .00000093  00000-0  23964-4 0  9993,2 51123  53.2170 101.3460 0001491  94.0753 266.0410 15.08839901103108,6917.881,95.438,540.777,538.714,0.0
51123.0,STARLINK-3392,PAYLOAD,2023-11-20 14:16:14,15.08840444,0.000147,53.2176,100.4542,93.7065,266.4095,2.4519e-05,1.02e-06,0.0,0 STARLINK-3392,1 51123U 22005V   23324.59461404  .00000102  00000-0  24519-4 0  9996,2 51123  53.2176 100.4542 0001470  93.7065 266.4095 15.08840444102054,6917.879,95.438,540.761,538.727,0.0
